NORAD_CAT_ID,OBJECT_NAME,OBJECT_TYPE,EPOCH,MEAN_MOTION,ECCENTRICITY,INCLINATION,RA_OF_ASC_NODE,ARG_OF_PERICENTER,MEAN_ANOMALY,BSTAR,MEAN_MOTION_DOT,MEAN_MOTION_DDOT,TLE_LINE0,TLE_LINE1,TLE_LINE2,SEMIMAJOR_AXIS,PERIOD,APOGEE,PERIGEE,DECAYED
50813.0,STARLINK-3349,PAYLOAD,2023-04-24 22:47:05,15.08836133,0.0001427,53.215,191.5365,92.6757,267.4398,-0.00089159,-0.00014448,0.0,0 STARLINK-3349,1 50813U 22001L   23114.94936818 -.00014448  00000-0 -89159-3 0  9999,2 50813  53.2150 191.5365 0001427  92.6757 267.4398 15.08836133 73327,6917.892,95.438,540.744,538.77,0.0
50813.0,STARLINK-3349,PAYLOAD,2023-04-25 09:54:49,15.0879322,0.000131,53.2147,189.4551,90.8217,269.2925,-6.3528e-05,-1.297e-05,0.0,0 STARLINK-3349,1 50813U 22001L   23115.41306738 -.00001297  00000-0 -63528-4 0  9995,2 50813  53.2147 189.4551 0001310  90.8217 269.2925 15.08793220 72142,6918.023,95.441,540.795,538.982,0.0
50813.0,STARLINK-3349,PAYLOAD,2023-04-26 11:21:01,15.08821657,0.000143,53.2148,184.6938,113.6118,246.5024,0.0012286,0.00019309,0.0,0 STARLINK-3349,1 50813U 22001L   23116.47293281  .00019309  00000-0  12286-2 0  9994,2 50813  53.2148 184.6938 0001430 113.6118 246.5024 15.08821657 72308,6917.936,95.439,540.791,538.812,0.0
50813.0,STARLINK-3349,PAYLOAD,2023-04-27 11:11:48,15.0886252,0.0001291,53.2153,180.2342,102.336,257.7776,0.0012967,0.00020422,0.0,0 STARLINK-3349,1 50813U 22001L   23117.46653098  .00020422  00000-0  12967-2 0  9994,2 50813  53.2153 180.2342 0001291 102.3360 257.7776 15.08862520 72452,6917.812,95.436,540.57,538.783,0.0
50813.0,STARLINK-3349,PAYLOAD,2023-04-28 11:02:34,15.08869382,0.0001374,53.2157,175.7756,107.4897,252.6245,0.0005038,7.745e-05,0.0,0 STARLINK-3349,1 50813U 22001L   23118.46011629  .00007745  00000-0  50380-3 0  9998,2 50813  53.2157 175.7756 0001374 107.4897 252.6245 15.08869382 73850,6917.791,95.436,540.606,538.705,0.0
50813.0,STARLINK-3349,PAYLOAD,2023-04-28 20:34:52,15.08859195,0.0001476,53.2151,173.9912,94.0687,266.0474,8.5306e-05,1.071e-05,0.0,0 STARLINK-3349,1 50813U 22001L   23118.85755336  .00001071  00000-0  85306-4 0  9994,2 50813  53.2151 173.9912 0001476  94.0687 266.0474 15.08859195 73910,6917.822,95.436,540.708,538.666,0.0
50813.0,STARLINK-3349,PAYLOAD,2023-04-29 12:28:43,15.0884882,0.0001499,53.2158,171.0182,95.4126,264.7038,-6.1627e-05,-1.269e-05,0.0,0 STARLINK-3349,1 50813U 22001L   23119.51995294 -.00001269  00000-0 -61627-4 0  9998,2 50813  53.2158 171.0182 0001499  95.4126 264.7038 15.08848820 74019,6917.853,95.437,540.755,538.681,0.0
50813.0,STARLINK-3349,PAYLOAD,2023-04-30 12:19:30,15.08850378,0.0001326,53.2156,166.556,99.4162,260.698,-3.2851e-06,-3.4e-06,0.0,0 STARLINK-3349,1 50813U 22001L   23120.51354845 -.00000340  00000-0 -32851-5 0  9998,2 50813  53.2156 166.5560 0001326  99.4162 260.6980 15.08850378 72918,6917.849,95.437,540.631,538.796,0.0
50813.0,STARLINK-3349,PAYLOAD,2023-04-30 15:30:16,15.08850905,0.0001301,53.2149,165.9605,91.8105,268.3036,2.0209e-05,3.4e-07,0.0,0 STARLINK-3349,1 50813U 22001L   23120.64602787  .00000034  00000-0  20209-4 0  9994,2 50813  53.2149 165.9605 0001301  91.8105 268.3036 15.08850905 74183,6917.847,95.437,540.612,538.812,0.0
50813.0,STARLINK-3349,PAYLOAD,2023-05-01 12:10:18,15.08835853,0.0001433,53.2163,162.0915,101.3891,258.7262,-1.9766e-05,-6.02e-06,0.0,0 STARLINK-3349,1 50813U 22001L   23121.50715690 -.00000602  00000-0 -19766-4 0  9997,2 50813  53.2163 162.0915 0001433 101.3891 258.7262 15.08835853 74310,6917.893,95.438,540.749,538.767,0.0
50813.0,STARLINK-3349,PAYLOAD,2023-05-02 08:50:18,15.08852502,0.0001375,53.2157,158.2278,102.4317,257.6829,0.00024787,3.66e-05,0.0,0 STARLINK-3349,1 50813U 22001L   23122.36826834  .00003660  00000-0  24787-3 0  9998,2 50813  53.2157 158.2278 0001375 102.4317 257.6829 15.08852502 73194,6917.842,95.437,540.658,538.756,0.0
50813.0,STARLINK-3349,PAYLOAD,2023-05-02 13:36:27,15.08853954,0.000134,53.2153,157.3354,100.3607,259.7537,0.00025621,3.794e-05,0.0,0 STARLINK-3349,1 50813U 22001L   23122.56698663  .00003794  00000-0  25621-3 0  9993,2 50813  53.2153 157.3354 0001340 100.3607 259.7537 15.08853954 73221,6917.838,95.437,540.63,538.776,0.0
50813.0,STARLINK-3349,PAYLOAD,2023-05-03 05:30:19,15.08841284,0.0001822,53.2152,154.3541,119.2505,240.8669,7.3877e-05,8.88e-06,0.0,0 STARLINK-3349,1 50813U 22001L   23123.22939115  .00000888  00000-0  73877-4 0  9995,2 50813  53.2152 154.3541 0001822 119.2505 240.8669 15.08841284 74575,6917.876,95.437,541.002,538.481,0.0
50813.0,STARLINK-3349,PAYLOAD,2023-05-03 11:51:52,15.0883959,0.0001256,53.2149,153.1748,99.5248,260.5886,4.6943e-05,4.59e-06,0.0,0 STARLINK-3349,1 50813U 22001L   23123.49435398  .00000459  00000-0  46943-4 0  9996,2 50813  53.2149 153.1748 0001256  99.5248 260.5886 15.08839590 73365,6917.882,95.438,540.616,538.878,0.0
50813.0,STARLINK-3349,PAYLOAD,2023-05-04 11:42:39,15.08841942,0.0001411,53.2157,148.7143,91.7016,268.4138,-8.4338e-07,-3.01e-06,0.0,0 STARLINK-3349,1 50813U 22001L   23124.48795286 -.00000301  00000-0 -84338-6 0  9991,2 50813  53.2157 148.7143 0001411  91.7016 268.4138 15.08841942 74769,6917.874,95.437,540.716,538.763,0.0
50813.0,STARLINK-3349,PAYLOAD,2023-05-05 17:54:59,15.08837361,0.0001224,53.2157,143.0636,89.2534,270.8598,6.9952e-05,8.26e-06,0.0,0 STARLINK-3349,1 50813U 22001L   23125.74651736  .00000826  00000-0  69952-4 0  9995,2 50813  53.2157 143.0636 0001224  89.2534 270.8598 15.08837361 74951,6917.888,95.438,540.6,538.907,0.0
50813.0,STARLINK-3349,PAYLOAD,2023-05-06 06:38:04,15.08838223,0.000121,53.2156,140.6852,92.1193,267.9938,6.7293e-05,7.83e-06,0.0,0 STARLINK-3349,1 50813U 22001L   23126.27643924  .00000783  00000-0  67293-4 0  9992,2 50813  53.2156 140.6852 0001210  92.1193 267.9938 15.08838223 73785,6917.886,95.438,540.588,538.914,0.0
50813.0,STARLINK-3349,PAYLOAD,2023-05-06 22:31:55,15.08840917,0.0001199,53.2155,137.7116,93.1663,266.9466,9.3511e-05,1.201e-05,0.0,0 STARLINK-3349,1 50813U 22001L   23126.93883746  .00001201  00000-0  93511-4 0  9991,2 50813  53.2155 137.7116 0001199  93.1663 266.9466 15.08840917 75132,6917.878,95.437,540.572,538.913,0.0
50813.0,STARLINK-3349,PAYLOAD,2023-05-07 08:04:14,15.08843016,0.0001185,53.2156,135.9275,93.3531,266.7597,9.0931e-05,1.16e-05,0.0,0 STARLINK-3349,1 50813U 22001L   23127.33627637  .00001160  00000-0  90931-4 0  9998,2 50813  53.2156 135.9275 0001185  93.3531 266.7597 15.08843016 73943,6917.871,95.437,540.556,538.916,0.0
50813.0,STARLINK-3349,PAYLOAD,2023-05-07 17:36:33,15.08840125,0.0001179,53.2157,134.1432,88.7303,271.3824,7.8844e-05,9.67e-06,0.0,0 STARLINK-3349,1 50813U 22001L   23127.73371877  .00000967  00000-0  78844-4 0  9997,2 50813  53.2157 134.1432 0001179  88.7303 271.3824 15.08840125 74009,6917.88,95.438,540.561,538.929,0.0
50813.0,STARLINK-3349,PAYLOAD,2023-05-08 04:44:15,15.08836166,0.0001208,53.2158,132.0612,88.9627,271.1504,6.6194e-05,7.66e-06,0.0,0 STARLINK-3349,1 50813U 22001L   23128.19740284  .00000766  00000-0  66194-4 0  9992,2 50813  53.2158 132.0612 0001208  88.9627 271.1504 15.08836166 75320,6917.892,95.438,540.593,538.921,0.0
50813.0,STARLINK-3349,PAYLOAD,2023-05-08 17:27:20,15.08838315,0.0001213,53.2158,129.6819,88.1316,271.9815,5.2499e-05,5.48e-06,0.0,0 STARLINK-3349,1 50813U 22001L   23128.72732237  .00000548  00000-0  52499-4 0  9991,2 50813  53.2158 129.6819 0001213  88.1316 271.9815 15.08838315 74155,6917.886,95.438,540.59,538.911,0.0
50813.0,STARLINK-3349,PAYLOAD,2023-05-09 06:10:25,15.08840834,0.000121,53.216,127.3028,88.1533,271.9597,6.5242e-05,7.51e-06,0.0,0 STARLINK-3349,1 50813U 22001L   23129.25724077  .00000751  00000-0  65242-4 0  9999,2 50813  53.2160 127.3028 0001210  88.1533 271.9597 15.08840834 74238,6917.878,95.438,540.58,538.906,0.0
50813.0,STARLINK-3349,PAYLOAD,2023-05-10 06:01:12,15.08844918,0.000121,53.2166,122.8419,89.7373,270.3757,0.00015023,2.104e-05,0.0,0 STARLINK-3349,1 50813U 22001L   23130.25083641  .00002104  00000-0  15023-3 0  9991,2 50813  53.2166 122.8419 0001210  89.7373 270.3757 15.08844918 74381,6917.865,95.437,540.567,538.893,0.0
50813.0,STARLINK-3349,PAYLOAD,2023-05-11 05:51:59,15.08841305,0.0001213,53.2169,118.3803,93.0068,267.1063,6.6436e-05,7.7e-06,0.0,0 STARLINK-3349,1 50813U 22001L   23131.24444042  .00000770  00000-0  66436-4 0  9999,2 50813  53.2169 118.3803 0001213  93.0068 267.1063 15.08841305 74531,6917.876,95.437,540.581,538.902,0.0
50813.0,STARLINK-3349,PAYLOAD,2023-05-12 05:42:47,15.08838795,0.0001193,53.217,113.9205,92.1834,267.9295,1.1365e-06,-2.7e-06,0.0,0 STARLINK-3349,1 50813U 22001L   23132.23804407 -.00000270  00000-0  11365-5 0  9992,2 50813  53.2170 113.9205 0001193  92.1834 267.9295 15.08838795 74688,6917.884,95.438,540.574,538.924,0.0
50813.0,STARLINK-3349,PAYLOAD,2023-05-12 15:15:05,15.08842001,0.0001167,53.2171,112.1372,90.1999,269.9127,9.2746e-08,-2.86e-06,0.0,0 STARLINK-3349,1 50813U 22001L   23132.63548243 -.00000286  00000-0  92746-7 0  9990,2 50813  53.2171 112.1372 0001167  90.1999 269.9127 15.08842001 75992,6917.874,95.437,540.547,538.932,0.0
50813.0,STARLINK-3349,PAYLOAD,2023-05-13 05:33:34,15.08837706,0.0001093,53.2172,109.4632,85.8102,274.3015,7.4938e-05,9.05e-06,0.0,0 STARLINK-3349,1 50813U 22001L   23133.23164563  .00000905  00000-0  74938-4 0  9993,2 50813  53.2172 109.4632 0001093  85.8102 274.3015 15.08837706 74830,6917.887,95.438,540.509,538.996,0.0
50813.0,STARLINK-3349,PAYLOAD,2023-05-14 05:24:21,15.08835132,0.0001145,53.2166,105.0036,106.6148,253.497,3.4259e-05,2.57e-06,0.0,0 STARLINK-3349,1 50813U 22001L   23134.22525157  .00000257  00000-0  34259-4 0  9995,2 50813  53.2166 105.0036 0001145 106.6148 253.4970 15.08835132 76238,6917.895,95.438,540.552,538.968,0.0
50813.0,STARLINK-3349,PAYLOAD,2023-05-15 05:15:08,15.08844425,0.0001136,53.2168,100.5428,100.9969,259.1151,0.00010322,1.355e-05,0.0,0 STARLINK-3349,1 50813U 22001L   23135.21884494  .00001355  00000-0  10322-3 0  9991,2 50813  53.2168 100.5428 0001136 100.9969 259.1151 15.08844425 76388,6917.867,95.437,540.518,538.946,0.0
